GALAXY 31 (G-31)        
1 54243U 22153A   23055.99571410  .00000005  00000+0  00000+0 0  9995
2 54243   0.0161 176.3060 0003731 115.9189  99.7973  1.00270511  1045
GALAXY 32 (G-32)        
1 54244U 22153B   23056.17631591 -.00000182  00000+0  00000+0 0  9991
2 54244   0.0212  36.2935 0002794 313.3489 137.5701  1.00272579  1050
GALAXY 35 (G-35)        
1 54741U 22170A   23055.52684244 -.00000054  00000+0  00000+0 0  9991
2 54741   0.0543 292.6729 0002512 100.4498 185.8162  1.00835473   785
GALAXY 36 (G-36)        
1 54742U 22170B   23056.21719988 -.00000212  00000+0  00000+0 0  9999
2 54742   0.0117 117.2193 0010384 217.2000 169.5623  1.00429433   801
IRIDIUM 106             
1 41917U 17003A   23055.91405449  .00000156  00000+0  48734-4 0  9995
2 41917  86.3955 233.3846 0001771  86.7251 273.4148 14.34215092320021
IRIDIUM 103             
1 41918U 17003B   23055.76182338  .00000018  00000+0 -63553-6 0  9994
2 41918  86.3953 233.3516 0002205  86.3352 273.8096 14.34215600320026
IRIDIUM 109             
1 41919U 17003C   23055.55887164  .00000140  00000+0  42865-4 0  9997
2 41919  86.3955 233.4761 0002136  88.7313 271.4127 14.34216525319965
IRIDIUM 102             
1 41920U 17003D   23055.73646058  .00000141  00000+0  43463-4 0  9990
2 41920  86.3953 233.3511 0002220  95.3351 264.8098 14.34217269320070
IRIDIUM 105             
1 41921U 17003E   23055.84676025  .00000469  00000+0  16053-3 0  9997
2 41921  86.4016 201.7565 0002018  89.2887 270.8540 14.34213241321943
IRIDIUM 104             
1 41922U 17003F   23056.02821990  .00000122  00000+0  36335-4 0  9994
2 41922  86.3955 233.2537 0001920  83.7886 276.3528 14.34216841320106
IRIDIUM 114             
1 41923U 17003G   23055.54617556  .00000138  00000+0  42301-4 0  9999
2 41923  86.3954 233.4423 0001860  97.4901 262.6506 14.34219846320017
IRIDIUM 108             
1 41924U 17003H   23055.85353869  .00000479  00000+0  16406-3 0  9992
2 41924  86.4019 201.7096 0001506  91.8731 268.2637 14.34215776321916
IRIDIUM 112             
1 41925U 17003J   23055.74280348  .00000121  00000+0  36311-4 0  9994
2 41925  86.3950 233.2585 0002076  98.8733 261.2698 14.34214992320069
IRIDIUM 111             
1 41926U 17003K   23056.00918528  .00000129  00000+0  39154-4 0  9999
2 41926  86.3952 233.1912 0002217  84.9862 275.1587 14.34219672320152
IRIDIUM 113             
1 42803U 17039A   23056.19845952  .00000365  00000+0  12333-3 0  9994
2 42803  86.3945 107.0015 0002294  89.7922 270.3537 14.34221102298042
IRIDIUM 123             
1 42804U 17039B   23055.75156653  .00000404  00000+0  13715-3 0  9998
2 42804  86.4001 138.7076 0002414  94.7702 265.3769 14.34220803296744
IRIDIUM 120             
1 42805U 17039C   23056.05259681  .00000353  00000+0  11883-3 0  9995
2 42805  86.3934 107.0016 0002280  90.1631 269.9826 14.34213276298016
IRIDIUM 115             
1 42806U 17039D   23055.89005096  .00000447  00000+0  12682-3 0  9998
2 42806  86.4472 107.0224 0003086  83.2988 276.8564 14.43275901299985
IRIDIUM 118             
1 42807U 17039E   23055.78329273  .00000385  00000+0  13035-3 0  9997
2 42807  86.4002 138.6979 0002306  98.5222 261.6235 14.34215436296741
IRIDIUM 117             
1 42808U 17039F   23055.73254459  .00000408  00000+0  13848-3 0  9994
2 42808  86.4000 138.6875 0002053  92.4357 267.7074 14.34216440296762
IRIDIUM 126             
1 42809U 17039G   23055.75789947  .00000599  00000+0  20684-3 0  9999
2 42809  86.4001 138.7085 0002365  95.2847 264.8619 14.34213697296741
IRIDIUM 124             
1 42810U 17039H   23055.75453454  .00000232  00000+0  62846-4 0  9993
2 42810  86.4441  75.4284 0001940  92.2191 267.9232 14.43274844300816
IRIDIUM 128             
1 42811U 17039J   23055.81842096  .00000483  00000+0  16550-3 0  9993
2 42811  86.4037 170.1659 0002196  91.6520 268.4927 14.34217040296782
IRIDIUM 121             
1 42812U 17039K   23055.77694175  .00000390  00000+0  13205-3 0  9993
2 42812  86.4003 138.7212 0002302  94.3738 265.7721 14.34217235296622
IRIDIUM 133             
1 42955U 17061A   23055.29197346  .00000481  00000+0  16460-3 0  9998
2 42955  86.4036 170.4735 0002208  90.6288 269.5160 14.34219163281505
IRIDIUM 100             
1 42956U 17061B   23055.84378894  .00000379  00000+0  12813-3 0  9993
2 42956  86.4037 170.1908 0002032  95.1935 264.9492 14.34215475281587
IRIDIUM 122             
1 42957U 17061C   23055.81206795  .00000438  00000+0  14933-3 0  9992
2 42957  86.4039 170.2014 0002176  90.3823 269.7623 14.34219753281583
IRIDIUM 129             
1 42958U 17061D   23055.83745251  .00000424  00000+0  14418-3 0  9993
2 42958  86.4039 170.2449 0002196  91.9902 268.1545 14.34216106281601
IRIDIUM 119             
1 42959U 17061E   23055.80572663  .00000427  00000+0  14558-3 0  9994
2 42959  86.4045 170.2481 0002347  90.9653 269.1812 14.34211534281614
IRIDIUM 107             
1 42960U 17061F   23055.82476407  .00000446  00000+0  15228-3 0  9993
2 42960  86.4041 170.2537 0002065  93.0353 267.1079 14.34216853281625
IRIDIUM 132             
1 42961U 17061G   23055.83107944  .00000492  00000+0  16851-3 0  9996
2 42961  86.4042 170.2384 0001876  91.5114 268.6297 14.34217886281629
IRIDIUM 136             
1 42962U 17061H   23056.07212261  .00000435  00000+0  14820-3 0  9994
2 42962  86.4039 170.1393 0002322  94.3061 265.8400 14.34217200281674
IRIDIUM 139             
1 42963U 17061J   23055.86916106  .00000386  00000+0  13063-3 0  9993
2 42963  86.4043 170.2668 0002033  90.7153 269.4275 14.34214185281654
IRIDIUM 125             
1 42964U 17061K   23055.85646071  .00000435  00000+0  14814-3 0  9994
2 42964  86.4042 170.3109 0002228  88.2958 271.8493 14.34219743281661
IRIDIUM 135             
1 43070U 17083A   23056.10967088  .00000322  00000+0  10792-3 0  9996
2 43070  86.3938 106.9544 0002105  99.5611 260.5823 14.34217702270995
IRIDIUM 138             
1 43071U 17083B   23055.85595970  .00000317  00000+0  10625-3 0  9994
2 43071  86.3928 106.8374 0002383  91.0281 269.1188 14.34213019270944
IRIDIUM 116             
1 43072U 17083C   23055.89402787  .00000316  00000+0  10571-3 0  9991
2 43072  86.3937 107.0447 0002333  97.9916 262.1545 14.34216470270982
IRIDIUM 130             
1 43073U 17083D   23055.86231347  .00000325  00000+0  10881-3 0  9995
2 43073  86.3947 107.2158 0002425  92.8711 267.2762 14.34216497270924
IRIDIUM 151             
1 43074U 17083E   23055.83694641  .00000322  00000+0  10805-3 0  9996
2 43074  86.3939 107.0989 0002440  98.0105 262.1367 14.34218043270944
IRIDIUM 134             
1 43075U 17083F   23055.87498485  .00000330  00000+0  11086-3 0  9990
2 43075  86.3940 107.0742 0002097  90.3418 269.8019 14.34221845270913
IRIDIUM 137             
1 43076U 17083G   23055.67836710  .00000337  00000+0  11325-3 0  9999
2 43076  86.3943 107.2261 0002347  98.6614 261.4848 14.34219734270958
IRIDIUM 141             
1 43077U 17083H   23055.88133314  .00000317  00000+0  10617-3 0  9994
2 43077  86.3936 107.0393 0002404  93.4155 266.7315 14.34220734270984
IRIDIUM 153             
1 43078U 17083J   23056.04283160  .00000201  00000+0  64609-4 0  9992
2 43078  86.3917  75.3835 0002459  87.0177 273.1300 14.34215308272119
IRIDIUM 131             
1 43079U 17083K   23055.86865884  .00000333  00000+0  11178-3 0  9999
2 43079  86.3944 107.1501 0002355  91.4590 268.6876 14.34216370270910
IRIDIUM 144             
1 43249U 18030A   23056.11893970  .00000181  00000+0  57655-4 0  9999
2 43249  86.3916  75.3132 0001959  88.3074 271.8346 14.34215957257008
IRIDIUM 149             
1 43250U 18030B   23055.49734811  .00000157  00000+0  49056-4 0  9998
2 43250  86.3913  75.5534 0001982  91.1977 268.9446 14.34219671256919
IRIDIUM 157             
1 43251U 18030C   23055.44661351  .00000165  00000+0  51758-4 0  9993
2 43251  86.3916  75.6014 0002482  92.7940 267.3540 14.34217569256888
IRIDIUM 140             
1 43252U 18030D   23055.81449436  .00000180  00000+0  57294-4 0  9991
2 43252  86.3916  75.4623 0001975  87.6131 272.5291 14.34215356256999
IRIDIUM 145             
1 43253U 18030E   23056.15064951  .00000176  00000+0  55881-4 0  9990
2 43253  86.3916  75.2967 0001833 100.7076 259.4327 14.34215538256971
IRIDIUM 146             
1 43254U 18030F   23055.78278559  .00000154  00000+0  47902-4 0  9991
2 43254  86.3916  75.4666 0002029  97.8659 262.2768 14.34216810256932
IRIDIUM 148             
1 43255U 18030G   23056.09991771  .00000173  00000+0  54621-4 0  9992
2 43255  86.3917  75.3594 0002358  96.4250 263.7214 14.34214332257020
IRIDIUM 142             
1 43256U 18030H   23055.78912374  .00000164  00000+0  51490-4 0  9991
2 43256  86.3914  75.4224 0002200  93.0881 267.0567 14.34215480256930
IRIDIUM 150             
1 43257U 18030J   23055.75741263  .00000171  00000+0  54053-4 0  9992
2 43257  86.3917  75.5129 0002051  88.9434 271.1996 14.34215647256959
IRIDIUM 143             
1 43258U 18030K   23055.80814936  .00000169  00000+0  53386-4 0  9992
2 43258  86.3921  75.5357 0001984  93.8640 266.2783 14.34216373256895
IRIDIUM 161             
1 43478U 18047C   23055.73244715  .00000212  00000+0  57047-4 0  9995
2 43478  86.4476 233.4405 0001931  86.3911 273.7510 14.43276634250839
IRIDIUM 152             
1 43479U 18047D   23055.85062839  .00000144  00000+0  44507-4 0  9995
2 43479  86.3949 233.2541 0002059  98.1237 262.0193 14.34215502249290
IRIDIUM 147             
1 43480U 18047E   23055.85696004  .00000141  00000+0  43387-4 0  9996
2 43480  86.3951 233.2356 0002265  92.5079 267.6376 14.34219180249290
IRIDIUM 110             
1 43481U 18047F   23055.86330485  .00000127  00000+0  38426-4 0  9998
2 43481  86.3952 233.2929 0001849  84.3917 275.7490 14.34219677249282
IRIDIUM 162             
1 43482U 18047G   23056.00345780  .00000190  00000+0  50510-4 0  9998
2 43482  86.4475 233.2338 0002061  91.0292 269.1145 14.43280304250861
